[{"OBJECT_NAME":"VSP RF A1","OBJECT_ID":"2024-043AP","EPOCH":"2026-03-07T00:44:15.345024","MEAN_MOTION":15.26179596,"ECCENTRICITY":0.00094313,"INCLINATION":97.5247,"RA_OF_ASC_NODE":201.5379,"ARG_OF_PERICENTER":234.6315,"MEAN_ANOMALY":125.4042,"EPHEMERIS_TYPE":0,"CLASSIFICATION_TYPE":"U","NORAD_CAT_ID":59135,"ELEMENT_SET_NO":999,"REV_AT_EPOCH":11140,"BSTAR":2.5198753e-5,"MEAN_MOTION_DOT":5.77e-6,"MEAN_MOTION_DDOT":0},{"OBJECT_NAME":"STARLINK-35506","OBJECT_ID":"2025-253F","EPOCH":"2026-03-09T17:22:39.063072","MEAN_MOTION":15.27595327,"ECCENTRICITY":0.00026424,"INCLINATION":43.003,"RA_OF_ASC_NODE":211.9772,"ARG_OF_PERICENTER":271.1001,"MEAN_ANOMALY":88.9548,"EPHEMERIS_TYPE":0,"CLASSIFICATION_TYPE":"U","NORAD_CAT_ID":66324,"ELEMENT_SET_NO":999,"REV_AT_EPOCH":2025,"BSTAR":0.0011450516,"MEAN_MOTION_DOT":0.00031398,"MEAN_MOTION_DDOT":0}]
